STARLINK-30267          
1 57663U 23124A   26068.68331117 -.00001446  00000+0 -36713-4 0  9991
2 57663  53.1593 207.0548 0000842  72.3184 287.7909 15.30193990143561
NUSAT-48 (HENRIETTA LE*)
1 60498U 24149AG  26068.80506098  .00012988  00000+0  45212-3 0  9999
2 60498  97.3923 150.8264 0002754 263.3026  96.7901 15.29812597 86946
